{"fetched_at":"2026-03-29T02:12:04Z","count":15717,"tles":[{"name":"KUIPER-00270","line1":"1 67791U 26030AD  26087.40064688  .00036270  00000+0  10548-2 0  9997","line2":"2 67791  51.8814 129.2251 0011212 117.3981 242.8147 15.35041666  7965","category":"Other"}]}